NORAD_CAT_ID,OBJECT_NAME,OBJECT_TYPE,EPOCH,MEAN_MOTION,ECCENTRICITY,INCLINATION,RA_OF_ASC_NODE,ARG_OF_PERICENTER,MEAN_ANOMALY,BSTAR,MEAN_MOTION_DOT,MEAN_MOTION_DDOT,TLE_LINE0,TLE_LINE1,TLE_LINE2,SEMIMAJOR_AXIS,PERIOD,APOGEE,PERIGEE,DECAYED
51811.0,STARLINK-3569,PAYLOAD,2023-02-02 02:46:02,15.08835688,0.0001577,53.2162,18.9548,107.045,253.0715,6.2548e-05,7.07e-06,0.0,0 STARLINK-3569,1 51811U 22017AV  23033.11530229  .00000707  00000-0  62548-4 0  9995,2 51811  53.2162  18.9548 0001577 107.0450 253.0715 15.08835688 53237,6917.894,95.438,540.85,538.668,0.0
51811.0,STARLINK-3569,PAYLOAD,2023-02-02 05:56:48,15.08844615,0.0001411,53.2167,18.3615,98.3724,261.7428,0.00023363,3.433e-05,0.0,0 STARLINK-3569,1 51811U 22017AV  23033.24778100  .00003433  00000-0  23363-3 0  9991,2 51811  53.2167  18.3615 0001411  98.3724 261.7428 15.08844615 53152,6917.866,95.437,540.707,538.755,0.0
51811.0,STARLINK-3569,PAYLOAD,2023-02-03 05:47:35,15.08849035,0.0001308,53.2167,13.9012,106.7508,253.3628,0.00050928,7.829e-05,0.0,0 STARLINK-3569,1 51811U 22017AV  23034.24138241  .00007829  00000-0  50928-3 0  9998,2 51811  53.2167  13.9012 0001308 106.7508 253.3628 15.08849035 53401,6917.853,95.437,540.623,538.813,0.0
51811.0,STARLINK-3569,PAYLOAD,2023-02-04 07:13:45,15.08843734,0.0001279,53.2169,9.1435,107.0832,253.0301,0.00018532,2.663e-05,0.0,0 STARLINK-3569,1 51811U 22017AV  23035.30122387  .00002663  00000-0  18532-3 0  9996,2 51811  53.2169   9.1435 0001279 107.0832 253.0301 15.08843734 53562,6917.869,95.437,540.619,538.849,0.0
51811.0,STARLINK-3569,PAYLOAD,2023-02-05 02:18:23,15.0883588,0.0001366,53.2162,5.5736,118.9936,241.1193,4.4443e-05,4.19e-06,0.0,0 STARLINK-3569,1 51811U 22017AV  23036.09610887  .00000419  00000-0  44443-4 0  9998,2 51811  53.2162   5.5736 0001366 118.9936 241.1193 15.08835880 53685,6917.893,95.438,540.703,538.813,0.0
51811.0,STARLINK-3569,PAYLOAD,2023-02-05 05:29:10,15.08838758,0.0001362,53.2166,4.9788,114.302,245.8115,0.00010308,1.353e-05,0.0,0 STARLINK-3569,1 51811U 22017AV  23036.22858800  .00001353  00000-0  10308-3 0  9992,2 51811  53.2166   4.9788 0001362 114.3020 245.8115 15.08838758 53603,6917.884,95.438,540.691,538.807,0.0
51811.0,STARLINK-3569,PAYLOAD,2023-02-05 21:23:01,15.08841265,0.0001329,53.217,2.0067,83.4948,276.6195,0.00013451,1.854e-05,0.0,0 STARLINK-3569,1 51811U 22017AV  23036.89099066  .00001854  00000-0  13451-3 0  9994,2 51811  53.2170   2.0067 0001329  83.4948 276.6195 15.08841265 53703,6917.877,95.437,540.661,538.822,0.0
51811.0,STARLINK-3569,PAYLOAD,2023-02-06 03:44:33,15.08846282,0.00012,53.217,0.8163,96.1487,263.9641,0.00025853,3.83e-05,0.0,0 STARLINK-3569,1 51811U 22017AV  23037.15594823  .00003830  00000-0  25853-3 0  9990,2 51811  53.2170   0.8163 0001200  96.1487 263.9641 15.08846282 53847,6917.861,95.437,540.556,538.896,0.0
51811.0,STARLINK-3569,PAYLOAD,2023-02-06 18:03:02,15.0884382,0.0001055,53.2171,358.1403,97.675,262.4361,0.00023741,3.493e-05,0.0,0 STARLINK-3569,1 51811U 22017AV  23037.75210926  .00003493  00000-0  23741-3 0  9994,2 51811  53.2171 358.1403 0001055  97.6750 262.4361 15.08843820 53939,6917.869,95.437,540.464,539.004,0.0
51811.0,STARLINK-3569,PAYLOAD,2023-02-06 19:38:25,15.08844589,0.0001269,53.2173,357.8428,85.6192,274.4945,0.00016126,2.28e-05,0.0,0 STARLINK-3569,1 51811U 22017AV  23037.81834947  .00002280  00000-0  16126-3 0  9998,2 51811  53.2173 357.8428 0001269  85.6192 274.4945 15.08844589 53842,6917.866,95.437,540.609,538.853,0.0
51811.0,STARLINK-3569,PAYLOAD,2023-02-07 03:35:20,15.08854173,0.0001249,53.2173,356.3566,79.8386,280.2747,0.00028215,4.207e-05,0.0,0 STARLINK-3569,1 51811U 22017AV  23038.14954339  .00004207  00000-0  28215-3 0  9996,2 51811  53.2173 356.3566 0001249  79.8386 280.2747 15.08854173 53998,6917.837,95.437,540.566,538.838,0.0
51811.0,STARLINK-3569,PAYLOAD,2023-02-07 17:53:48,15.08840213,0.0001613,53.2174,353.6799,122.4702,237.6446,-6.8072e-05,-1.371e-05,0.0,0 STARLINK-3569,1 51811U 22017AV  23038.74570530 -.00001371  00000-0 -68072-4 0  9996,2 51811  53.2174 353.6799 0001613 122.4702 237.6446 15.08840213 54082,6917.88,95.438,540.861,538.629,0.0
51811.0,STARLINK-3569,PAYLOAD,2023-02-07 21:04:35,15.08844881,0.0001258,53.2172,353.0851,112.5976,247.5149,1.825e-05,3e-08,0.0,0 STARLINK-3569,1 51811U 22017AV  23038.87818339  .00000003  00000-0  18250-4 0  9994,2 51811  53.2172 353.0851 0001258 112.5976 247.5149 15.08844881 54008,6917.865,95.437,540.601,538.86,0.0
51811.0,STARLINK-3569,PAYLOAD,2023-02-08 08:12:17,15.08841293,0.0001154,53.2178,351.0044,98.5783,261.534,-2.2782e-05,-6.5e-06,0.0,0 STARLINK-3569,1 51811U 22017AV  23039.34186432 -.00000650  00000-0 -22782-4 0  9994,2 51811  53.2178 351.0044 0001154  98.5783 261.5340 15.08841293 54070,6917.876,95.437,540.54,538.943,0.0
51811.0,STARLINK-3569,PAYLOAD,2023-02-09 03:16:55,15.08842027,9.53e-05,53.2173,347.4393,85.6524,274.4577,0.00014085,1.955e-05,0.0,0 STARLINK-3569,1 51811U 22017AV  23040.13674919  .00001955  00000-0  14085-3 0  9998,2 51811  53.2173 347.4393 0000953  85.6524 274.4577 15.08842027 54292,6917.874,95.437,540.398,539.08,0.0
51811.0,STARLINK-3569,PAYLOAD,2023-02-09 06:27:40,15.08854766,9.28e-05,53.218,346.8401,101.6232,258.4865,0.00026195,3.885e-05,0.0,0 STARLINK-3569,1 51811U 22017AV  23040.26922190  .00003885  00000-0  26195-3 0  9998,2 51811  53.2180 346.8401 0000928 101.6232 258.4865 15.08854766 54217,6917.835,95.437,540.342,539.058,0.0
51811.0,STARLINK-3569,PAYLOAD,2023-02-09 23:56:56,15.08834618,9.46e-05,53.2174,343.5702,115.7658,244.3432,0.00011988,1.62e-05,0.0,0 STARLINK-3569,1 51811U 22017AV  23040.99787333  .00001620  00000-0  11988-3 0  9995,2 51811  53.2174 343.5702 0000946 115.7658 244.3432 15.08834618 54427,6917.897,95.438,540.416,539.107,0.0
51811.0,STARLINK-3569,PAYLOAD,2023-02-10 03:07:42,15.08842149,8.3e-05,53.2164,342.979,75.1695,284.9389,0.00027419,4.079e-05,0.0,0 STARLINK-3569,1 51811U 22017AV  23041.13035139  .00004079  00000-0  27419-3 0  9999,2 51811  53.2164 342.9790 0000830  75.1695 284.9389 15.08842149 54348,6917.874,95.437,540.313,539.165,0.0
51811.0,STARLINK-3569,PAYLOAD,2023-02-10 04:43:05,15.08852191,8.01e-05,53.2173,342.6798,93.5818,266.5266,0.00046824,7.175e-05,0.0,0 STARLINK-3569,1 51811U 22017AV  23041.19658821  .00007175  00000-0  46824-3 0  9995,2 51811  53.2173 342.6798 0000801  93.5818 266.5266 15.08852191 54452,6917.843,95.437,540.262,539.154,0.0
51811.0,STARLINK-3569,PAYLOAD,2023-02-10 20:36:56,15.08852422,9.35e-05,53.2174,339.7026,91.0211,269.0888,0.00013217,1.817e-05,0.0,0 STARLINK-3569,1 51811U 22017AV  23041.85898438  .00001817  00000-0  13217-3 0  9995,2 51811  53.2174 339.7026 0000935  91.0211 269.0888 15.08852422 54457,6917.842,95.437,540.354,539.061,0.0
51811.0,STARLINK-3569,PAYLOAD,2023-02-10 23:47:42,15.08855568,8.65e-05,53.2173,339.1067,82.4142,277.6949,0.00021565,3.147e-05,0.0,0 STARLINK-3569,1 51811U 22017AV  23041.99146224  .00003147  00000-0  21565-3 0  9992,2 51811  53.2173 339.1067 0000865  82.4142 277.6949 15.08855568 54574,6917.833,95.437,540.296,539.099,0.0
51811.0,STARLINK-3569,PAYLOAD,2023-02-11 04:33:51,15.08869891,7.29e-05,53.2167,338.2183,65.8828,294.2241,0.00064728,0.00010037,0.0,0 STARLINK-3569,1 51811U 22017AV  23042.19017899  .00010037  00000-0  64728-3 0  9994,2 51811  53.2167 338.2183 0000729  65.8828 294.2241 15.08869891 54609,6917.789,95.436,540.158,539.15,0.0
51811.0,STARLINK-3569,PAYLOAD,2023-02-11 20:27:43,15.08836347,0.0001011,53.2164,335.2447,72.9819,287.1284,-8.3789e-05,-1.621e-05,0.0,0 STARLINK-3569,1 51811U 22017AV  23042.85258812 -.00001621  00000-0 -83789-4 0  9999,2 51811  53.2164 335.2447 0001011  72.9819 287.1284 15.08836347 54608,6917.892,95.438,540.456,539.057,0.0
51811.0,STARLINK-3569,PAYLOAD,2023-02-11 22:03:06,15.08837192,0.0001025,53.2164,334.9473,75.9606,284.15,3.6878e-06,-2.29e-06,0.0,0 STARLINK-3569,1 51811U 22017AV  23042.91882844 -.00000229  00000-0  36878-5 0  9994,2 51811  53.2164 334.9473 0001025  75.9606 284.1500 15.08837192 54714,6917.889,95.438,540.463,539.045,0.0
51811.0,STARLINK-3569,PAYLOAD,2023-02-12 06:00:02,15.08850405,0.0001089,53.2165,333.46,73.8579,286.2533,0.00055891,8.621e-05,0.0,0 STARLINK-3569,1 51811U 22017AV  23043.25002549  .00008621  00000-0  55891-3 0  9995,2 51811  53.2165 333.4600 0001089  73.8579 286.2533 15.08850405 54763,6917.849,95.437,540.467,538.96,0.0
51811.0,STARLINK-3569,PAYLOAD,2023-02-12 12:21:35,15.08834165,0.000222,53.2161,332.271,66.6434,293.4791,0.00048515,7.44e-05,0.0,0 STARLINK-3569,1 51811U 22017AV  23043.51499563  .00007440  00000-0  48515-3 0  9993,2 51811  53.2161 332.2710 0002220  66.6434 293.4791 15.08834165 54701,6917.898,95.438,541.299,538.227,0.0
51811.0,STARLINK-3569,PAYLOAD,2023-02-12 18:43:08,15.0883058,0.0001384,53.2156,331.0818,70.8463,289.2679,-0.00063253,-0.00010338,0.0,0 STARLINK-3569,1 51811U 22017AV  23043.77995522 -.00010338  00000-0 -63253-3 0  9995,2 51811  53.2156 331.0818 0001384  70.8463 289.2679 15.08830580 54840,6917.909,95.438,540.732,538.817,0.0
51811.0,STARLINK-3569,PAYLOAD,2023-02-13 01:04:40,15.08840367,0.0001241,53.2155,329.8923,66.8707,293.2416,0.00042068,6.414e-05,0.0,0 STARLINK-3569,1 51811U 22017AV  23044.04491521  .00006414  00000-0  42068-3 0  9995,2 51811  53.2155 329.8923 0001241  66.8707 293.2416 15.08840367 54881,6917.879,95.438,540.603,538.886,0.0
51811.0,STARLINK-3569,PAYLOAD,2023-02-13 12:12:22,15.08840715,9.53e-05,53.2159,327.8108,68.0312,292.0782,0.0007165,0.00011134,0.0,0 STARLINK-3569,1 51811U 22017AV  23044.50859741  .00011134  00000-0  71650-3 0  9992,2 51811  53.2159 327.8108 0000953  68.0312 292.0782 15.08840715 54850,6917.878,95.438,540.402,539.084,0.0
51811.0,STARLINK-3569,PAYLOAD,2023-02-13 18:33:55,15.08838365,0.0001444,53.2156,326.6217,73.2746,286.8405,0.00063072,9.764e-05,0.0,0 STARLINK-3569,1 51811U 22017AV  23044.77356095  .00009764  00000-0  63072-3 0  9990,2 51811  53.2156 326.6217 0001444  73.2746 286.8405 15.08838365 54996,6917.885,95.438,540.749,538.751,0.0
